{
  "type": "FeatureCollection",
  "features": [
    {
      "type": "Feature",
      "properties": {
        "norad_id": 41581,
        "name": "INTELSAT 31 (IS-31)",
        "group": "intelsat",
        "lat": -0.010324654060371315,
        "lon": 148.64264858540992,
        "alt_km": 35782.83324784038,
        "timestamp": "2025-12-11T10:53:15.553501+00:00",
        "meta_object_name": "INTELSAT 31 (IS-31)",
        "meta_object_id": "2016-035A",
        "meta_epoch": "2025-12-11T02:47:08.911104",
        "meta_mean_motion": 1.00272585,
        "meta_eccentricity": 0.0001971,
        "meta_inclination": 0.0158,
        "meta_ra_of_asc_node": 272.679,
        "meta_arg_of_pericenter": 304.2877,
        "meta_mean_anomaly": 169.8397,
        "meta_ephemeris_type": 0,
        "meta_classification_type": "U",
        "meta_norad_cat_id": 41581,
        "meta_element_set_no": 999,
        "meta_rev_at_epoch": 3479,
        "meta_bstar": 0,
        "meta_mean_motion_dot": -1.45e-06,
        "meta_mean_motion_ddot": 0,
        "tle_line1": "1 41581U 16035A   25345.11607536 -.00000145  00000+0  00000+0 0  9991",
        "tle_line2": "2 41581   0.0158 272.6790 0001971 304.2877 169.8397  1.00272585 34793"
      },
      "geometry": {
        "type": "Point",
        "coordinates": [
          148.64264858540992,
          -0.010324654060371315
        ]
      }
    },
    {
      "type": "Feature",
      "properties": {
        "norad_id": 41747,
        "name": "INTELSAT 36 (IS-36)",
        "group": "intelsat",
        "lat": -0.022212688882723482,
        "lon": -47.794003313079834,
        "alt_km": 35780.39902326745,
        "timestamp": "2025-12-11T10:53:15.553515+00:00",
        "meta_object_name": "INTELSAT 36 (IS-36)",
        "meta_object_id": "2016-053A",
        "meta_epoch": "2025-12-11T03:33:49.440096",
        "meta_mean_motion": 1.00270338,
        "meta_eccentricity": 0.0001465,
        "meta_inclination": 0.0146,
        "meta_ra_of_asc_node": 13.5614,
        "meta_arg_of_pericenter": 307.9865,
        "meta_mean_anomaly": 240.5068,
        "meta_ephemeris_type": 0,
        "meta_classification_type": "U",
        "meta_norad_cat_id": 41747,
        "meta_element_set_no": 999,
        "meta_rev_at_epoch": 3406,
        "meta_bstar": 0,
        "meta_mean_motion_dot": -1.8e-07,
        "meta_mean_motion_ddot": 0,
        "tle_line1": "1 41747U 16053A   25345.14848889 -.00000018  00000+0  00000+0 0  9995",
        "tle_line2": "2 41747   0.0146  13.5614 0001465 307.9865 240.5068  1.00270338 34062"
      },
      "geometry": {
        "type": "Point",
        "coordinates": [
          -47.794003313079834,
          -0.022212688882723482
        ]
      }
    },
    {
      "type": "Feature",
      "properties": {
        "norad_id": 41945,
        "name": "INTELSAT 32E (IS-32E)",
        "group": "intelsat",
        "lat": 0.013274830844083645,
        "lon": -159.46402404432195,
        "alt_km": 35788.700658086884,
        "timestamp": "2025-12-11T10:53:15.553527+00:00",
        "meta_object_name": "INTELSAT 32E (IS-32E)",
        "meta_object_id": "2017-007B",
        "meta_epoch": "2025-12-11T03:01:59.988000",
        "meta_mean_motion": 1.0026961,
        "meta_eccentricity": 5.12e-05,
        "meta_inclination": 0.034,
        "meta_ra_of_asc_node": 79.4716,
        "meta_arg_of_pericenter": 277.6306,
        "meta_mean_anomaly": 85.3053,
        "meta_ephemeris_type": 0,
        "meta_classification_type": "U",
        "meta_norad_cat_id": 41945,
        "meta_element_set_no": 999,
        "meta_rev_at_epoch": 3233,
        "meta_bstar": 0,
        "meta_mean_motion_dot": -2.63e-06,
        "meta_mean_motion_ddot": 0,
        "tle_line1": "1 41945U 17007B   25345.12638875 -.00000263  00000+0  00000+0 0  9997",
        "tle_line2": "2 41945   0.0340  79.4716 0000512 277.6306  85.3053  1.00269610 32335"
      },
      "geometry": {
        "type": "Point",
        "coordinates": [
          -159.46402404432195,
          0.013274830844083645
        ]
      }
    },
    {
      "type": "Feature",
      "properties": {
        "norad_id": 42818,
        "name": "INTELSAT 35E (IS-35E)",
        "group": "intelsat",
        "lat": -0.022775562913072925,
        "lon": -150.815560082279,
        "alt_km": 35782.121689907646,
        "timestamp": "2025-12-11T10:53:15.553539+00:00",
        "meta_object_name": "INTELSAT 35E (IS-35E)",
        "meta_object_id": "2017-041A",
        "meta_epoch": "2025-12-11T03:04:29.747712",
        "meta_mean_motion": 1.00269178,
        "meta_eccentricity": 0.0002211,
        "meta_inclination": 0.0179,
        "meta_ra_of_asc_node": 355.4658,
        "meta_arg_of_pericenter": 273.4798,
        "meta_mean_anomaly": 182.7563,
        "meta_ephemeris_type": 0,
        "meta_classification_type": "U",
        "meta_norad_cat_id": 42818,
        "meta_element_set_no": 999,
        "meta_rev_at_epoch": 3093,
        "meta_bstar": 0,
        "meta_mean_motion_dot": -2.33e-06,
        "meta_mean_motion_ddot": 0,
        "tle_line1": "1 42818U 17041A   25345.12812208 -.00000233  00000+0  00000+0 0  9996",
        "tle_line2": "2 42818   0.0179 355.4658 0002211 273.4798 182.7563  1.00269178 30935"
      },
      "geometry": {
        "type": "Point",
        "coordinates": [
          -150.815560082279,
          -0.022775562913072925
        ]
      }
    },
    {
      "type": "Feature",
      "properties": {
        "norad_id": 42950,
        "name": "INTELSAT 37E (IS-37E)",
        "group": "intelsat",
        "lat": -0.03546914455338947,
        "lon": -134.29065916182148,
        "alt_km": 35774.448059710994,
        "timestamp": "2025-12-11T10:53:15.553551+00:00",
        "meta_object_name": "INTELSAT 37E (IS-37E)",
        "meta_object_id": "2017-059A",
        "meta_epoch": "2025-12-11T03:09:14.294016",
        "meta_mean_motion": 1.00271883,
        "meta_eccentricity": 0.0003164,
        "meta_inclination": 0.0193,
        "meta_ra_of_asc_node": 333.2898,
        "meta_arg_of_pericenter": 282.1901,
        "meta_mean_anomaly": 213.9287,
        "meta_ephemeris_type": 0,
        "meta_classification_type": "U",
        "meta_norad_cat_id": 42950,
        "meta_element_set_no": 999,
        "meta_rev_at_epoch": 3018,
        "meta_bstar": 0,
        "meta_mean_motion_dot": -1.35e-06,
        "meta_mean_motion_ddot": 0,
        "tle_line1": "1 42950U 17059A   25345.13141544 -.00000135  00000+0  00000+0 0  9992",
        "tle_line2": "2 42950   0.0193 333.2898 0003164 282.1901 213.9287  1.00271883 30182"
      },
      "geometry": {
        "type": "Point",
        "coordinates": [
          -134.29065916182148,
          -0.03546914455338947
        ]
      }
    },
    {
      "type": "Feature",
      "properties": {
        "norad_id": 43632,
        "name": "AZERSPACE 2 (IS-38)",
        "group": "intelsat",
        "lat": -0.03189018779393413,
        "lon": -71.16394846266301,
        "alt_km": 35780.34412388852,
        "timestamp": "2025-12-11T10:53:15.553563+00:00",
        "meta_object_name": "AZERSPACE 2 (IS-38)",
        "meta_object_id": "2018-074A",
        "meta_epoch": "2025-12-11T03:27:12.572928",
        "meta_mean_motion": 1.00271572,
        "meta_eccentricity": 0.0001462,
        "meta_inclination": 0.0185,
        "meta_ra_of_asc_node": 357.8949,
        "meta_arg_of_pericenter": 269.7233,
        "meta_mean_anomaly": 269.3983,
        "meta_ephemeris_type": 0,
        "meta_classification_type": "U",
        "meta_norad_cat_id": 43632,
        "meta_element_set_no": 999,
        "meta_rev_at_epoch": 2656,
        "meta_bstar": 0,
        "meta_mean_motion_dot": 1.42e-06,
        "meta_mean_motion_ddot": 0,
        "tle_line1": "1 43632U 18074A   25345.14389552  .00000142  00000+0  00000+0 0  9999",
        "tle_line2": "2 43632   0.0185 357.8949 0001462 269.7233 269.3983  1.00271572 26568"
      },
      "geometry": {
        "type": "Point",
        "coordinates": [
          -71.16394846266301,
          -0.03189018779393413
        ]
      }
    },
    {
      "type": "Feature",
      "properties": {
        "norad_id": 43633,
        "name": "HORIZONS-3E",
        "group": "intelsat",
        "lat": -0.005702866539928661,
        "lon": 52.73815683259761,
        "alt_km": 35790.21496105825,
        "timestamp": "2025-12-11T10:53:15.553575+00:00",
        "meta_object_name": "HORIZONS-3E",
        "meta_object_id": "2018-074B",
        "meta_epoch": "2025-12-10T19:28:56.939232",
        "meta_mean_motion": 1.00269493,
        "meta_eccentricity": 0.0001199,
        "meta_inclination": 0.0426,
        "meta_ra_of_asc_node": 178.6641,
        "meta_arg_of_pericenter": 100.4377,
        "meta_mean_anomaly": 261.9253,
        "meta_ephemeris_type": 0,
        "meta_classification_type": "U",
        "meta_norad_cat_id": 43633,
        "meta_element_set_no": 999,
        "meta_rev_at_epoch": 2645,
        "meta_bstar": 0,
        "meta_mean_motion_dot": -2.6e-07,
        "meta_mean_motion_ddot": 0,
        "tle_line1": "1 43633U 18074B   25344.81177013 -.00000026  00000+0  00000+0 0  9992",
        "tle_line2": "2 43633   0.0426 178.6641 0001199 100.4377 261.9253  1.00269493 26457"
      },
      "geometry": {
        "type": "Point",
        "coordinates": [
          52.73815683259761,
          -0.005702866539928661
        ]
      }
    }
  ]
}